[{"OBJECT_NAME":"STARLINK-5915","OBJECT_ID":"2023-042B","EPOCH":"2026-03-09T07:44:09.880512","MEAN_MOTION":15.02549692,"ECCENTRICITY":0.00014594,"INCLINATION":43.0048,"RA_OF_ASC_NODE":58.2302,"ARG_OF_PERICENTER":265.0638,"MEAN_ANOMALY":95.0038,"EPHEMERIS_TYPE":0,"CLASSIFICATION_TYPE":"U","NORAD_CAT_ID":55987,"ELEMENT_SET_NO":999,"REV_AT_EPOCH":16285,"BSTAR":3.4359642e-5,"MEAN_MOTION_DOT":2.61e-6,"MEAN_MOTION_DDOT":0},{"OBJECT_NAME":"CZ-4B R\/B","OBJECT_ID":"2010-051C","EPOCH":"2026-03-09T16:48:37.977120","MEAN_MOTION":15.17426017,"ECCENTRICITY":0.00758037,"INCLINATION":97.7974,"RA_OF_ASC_NODE":110.8647,"ARG_OF_PERICENTER":95.044,"MEAN_ANOMALY":265.9451,"EPHEMERIS_TYPE":0,"CLASSIFICATION_TYPE":"U","NORAD_CAT_ID":37181,"ELEMENT_SET_NO":999,"REV_AT_EPOCH":84355,"BSTAR":0.00029718512,"MEAN_MOTION_DOT":6.328e-5,"MEAN_MOTION_DDOT":0}]
